start=new Date('2023-03-13T00:00:00.000Z').valueOf();
sats=[{"MEAN_MOTION_DDOT":"0.0000000000000","MEAN_ELEMENT_THEORY":"SGP4","RA_OF_ASC_NODE":"191.6674","REF_FRAME":"TEME","EPOCH":"2023-03-12T13:05:02.878080","MEAN_MOTION_DOT":"-0.00000801","EPHEMERIS_TYPE":"0","ELEMENT_SET_NO":"999","OBJECT_TYPE":"PAYLOAD","CENTER_NAME":"EARTH","BSTAR":"-0.00003223300000","TLE_LINE1":"1 53886U 22119A   23071.54517220 -.00000801  00000-0 -32233-4 0  9992","REV_AT_EPOCH":"2665","MEAN_MOTION":"15.08825106","PERIOD":"95.438","TLE_LINE2":"2 53886  53.2196 191.6674 0001745 100.9881 259.1308 15.08825106 26659","SEMIMAJOR_AXIS":"6917.926","DECAY_DATE":null,"ECCENTRICITY":"0.00017450","MEAN_ANOMALY":"259.1308","COUNTRY_CODE":"US","FILE":"3858743","OBJECT_ID":"2022-119A","NORAD_CAT_ID":"53886","PERIAPSIS":"538.584","SITE":"AFETR","CLASSIFICATION_TYPE":"U","RCS_SIZE":"LARGE","GP_ID":"227966320","INCLINATION":"53.2196","OBJECT_NAME":"STARLINK-5028","LAUNCH_DATE":"2022-09-24","APOAPSIS":"540.998","TIME_SYSTEM":"UTC","ARG_OF_PERICENTER":"100.9881"},{"DECAY_DATE":null,"SEMIMAJOR_AXIS":"6917.887","TLE_LINE2":"2 53887  53.2181 190.7062 0002006  92.7347 267.3874 15.08837971 26686","MEAN_ANOMALY":"267.3874","ECCENTRICITY":"0.00020060","TLE_LINE1":"1 53887U 22119B   23071.73281854  .00000803  00000-0  68545-4 0  9990","BSTAR":"0.00006854500000","CENTER_NAME":"EARTH","OBJECT_TYPE":"PAYLOAD","MEAN_MOTION":"15.08837971","PERIOD":"95.438","REV_AT_EPOCH":"2668","ELEMENT_SET_NO":"999","MEAN_MOTION_DOT":"0.00000803","EPHEMERIS_TYPE":"0","MEAN_ELEMENT_THEORY":"SGP4","MEAN_MOTION_DDOT":"0.0000000000000","REF_FRAME":"TEME","RA_OF_ASC_NODE":"190.7062","EPOCH":"2023-03-12T17:35:15.521856","TIME_SYSTEM":"UTC","APOAPSIS":"541.139","ARG_OF_PERICENTER":"92.7347","RCS_SIZE":"LARGE","SITE":"AFETR","CLASSIFICATION_TYPE":"U","PERIAPSIS":"538.364","LAUNCH_DATE":"2022-09-24","INCLINATION":"53.2181","OBJECT_NAME":"STARLINK-5029","GP_ID":"227966071","NORAD_CAT_ID":"53887","FILE":"3858743","COUNTRY_CODE":"US","OBJECT_ID":"2022-119B"},{"TLE_LINE2":"2 53888  53.2146 190.7516 0002482  94.2545 265.8731 15.08834399 26683","SEMIMAJOR_AXIS":"6917.898","DECAY_DATE":null,"ECCENTRICITY":"0.00024820","MEAN_ANOMALY":"265.8731","OBJECT_TYPE":"PAYLOAD","CENTER_NAME":"EARTH","BSTAR":"-0.00002003600000","TLE_LINE1":"1 53888U 22119C   23071.74019269 -.00000607  00000-0 -20036-4 0  9998","REV_AT_EPOCH":"2668","MEAN_MOTION":"15.08834399","PERIOD":"95.438","MEAN_MOTION_DOT":"-0.00000607","EPHEMERIS_TYPE":"0","ELEMENT_SET_NO":"999","MEAN_ELEMENT_THEORY":"SGP4","MEAN_MOTION_DDOT":"0.0000000000000","REF_FRAME":"TEME","EPOCH":"2023-03-12T17:45:52.648416","RA_OF_ASC_NODE":"190.7516","APOAPSIS":"541.480","TIME_SYSTEM":"UTC","ARG_OF_PERICENTER":"94.2545","PERIAPSIS":"538.045","SITE":"AFETR","CLASSIFICATION_TYPE":"U","RCS_SIZE":"LARGE","GP_ID":"227965319","INCLINATION":"53.2146","OBJECT_NAME":"STARLINK-5034","LAUNCH_DATE":"2022-09-24","NORAD_CAT_ID":"53888","COUNTRY_CODE":"US","FILE":"3858743","OBJECT_ID":"2022-119C"},{"OBJECT_ID":"2022-119D","FILE":"3858743","COUNTRY_CODE":"US","NORAD_CAT_ID":"53889","GP_ID":"227965569","LAUNCH_DATE":"2022-09-24","OBJECT_NAME":"STARLINK-5031","INCLINATION":"53.2176","PERIAPSIS":"538.238","RCS_SIZE":"LARGE","SITE":"AFETR","CLASSIFICATION_TYPE":"U","ARG_OF_PERICENTER":"96.0675","APOAPSIS":"541.080","TIME_SYSTEM":"UTC","RA_OF_ASC_NODE":"190.7286","REF_FRAME":"TEME","EPOCH":"2023-03-12T17:40:30.637344","MEAN_ELEMENT_THEORY":"SGP4","MEAN_MOTION_DDOT":"0.0000000000000","MEAN_MOTION_DOT":"0.00005692","EPHEMERIS_TYPE":"0","ELEMENT_SET_NO":"999","REV_AT_EPOCH":"2668","PERIOD":"95.436","MEAN_MOTION":"15.08868185","CENTER_NAME":"EARTH","OBJECT_TYPE":"PAYLOAD","TLE_LINE1":"1 53889U 22119D   23071.73646571  .00005692  00000-0  37513-3 0  9994","BSTAR":"0.00037513000000","MEAN_ANOMALY":"264.0551","ECCENTRICITY":"0.00020540","TLE_LINE2":"2 53889  53.2176 190.7286 0002054  96.0675 264.0551 15.08868185 26681","DECAY_DATE":null,"SEMIMAJOR_AXIS":"6917.794"},{"BSTAR":"-0.00005627500000","TLE_LINE1":"1 53890U 22119E   23071.49592427 -.00001184  00000-0 -56275-4 0  9990","OBJECT_TYPE":"PAYLOAD","CENTER_NAME":"EARTH","MEAN_MOTION":"15.08832286","PERIOD":"95.438","REV_AT_EPOCH":"2714","SEMIMAJOR_AXIS":"6917.904","DECAY_DATE":null,"TLE_LINE2":"2 53890  53.2187 156.4135 0002222  65.3072 294.8151 15.08832286 27146","ECCENTRICITY":"0.00022220","MEAN_ANOMALY":"294.8151","MEAN_ELEMENT_THEORY":"SGP4","MEAN_MOTION_DDOT":"0.0000000000000","RA_OF_ASC_NODE":"156.4135","REF_FRAME":"TEME","EPOCH":"2023-03-12T11:54:07.856928","ELEMENT_SET_NO":"999","EPHEMERIS_TYPE":"0","MEAN_MOTION_DOT":"-0.00001184","CLASSIFICATION_TYPE":"U","SITE":"AFETR","RCS_SIZE":"LARGE","PERIAPSIS":"538.232","INCLINATION":"53.2187","OBJECT_NAME":"STARLINK-5050","LAUNCH_DATE":"2022-09-24","GP_ID":"227965821","TIME_SYSTEM":"UTC","APOAPSIS":"541.306","ARG_OF_PERICENTER":"65.3072","COUNTRY_CODE":"US","FILE":"3858743","OBJECT_ID":"2022-119E","NORAD_CAT_ID":"53890"},{"NORAD_CAT_ID":"53891","OBJECT_ID":"2022-119F","FILE":"3858743","COUNTRY_CODE":"US","ARG_OF_PERICENTER":"79.2597","APOAPSIS":"540.786","TIME_SYSTEM":"UTC","GP_ID":"227966571","LAUNCH_DATE":"2022-09-24","INCLINATION":"53.2177","OBJECT_NAME":"STARLINK-5041","PERIAPSIS":"538.707","RCS_SIZE":"LARGE","SITE":"AFETR","CLASSIFICATION_TYPE":"U","MEAN_MOTION_DOT":"0.00002189","EPHEMERIS_TYPE":"0","ELEMENT_SET_NO":"999","REF_FRAME":"TEME","RA_OF_ASC_NODE":"190.6851","EPOCH":"2023-03-12T17:29:56.941728","MEAN_ELEMENT_THEORY":"SGP4","MEAN_MOTION_DDOT":"0.0000000000000","MEAN_ANOMALY":"280.8565","ECCENTRICITY":"0.00015030","TLE_LINE2":"2 53891  53.2177 190.6851 0001503  79.2597 280.8565 15.08839643 26684","DECAY_DATE":null,"SEMIMAJOR_AXIS":"6917.881","REV_AT_EPOCH":"2668","PERIOD":"95.438","MEAN_MOTION":"15.08839643","CENTER_NAME":"EARTH","OBJECT_TYPE":"PAYLOAD","TLE_LINE1":"1 53891U 22119F   23071.72913127  .00002189  00000-0  15557-3 0  9992","BSTAR":"0.00015557000000"},{"TIME_SYSTEM":"UTC","APOAPSIS":"543.417","ARG_OF_PERICENTER":"112.5814","SITE":"AFETR","CLASSIFICATION_TYPE":"U","RCS_SIZE":"LARGE","PERIAPSIS":"541.092","INCLINATION":"53.2175","OBJECT_NAME":"STARLINK-5046","LAUNCH_DATE":"2022-09-24","GP_ID":"227964820","NORAD_CAT_ID":"53892","COUNTRY_CODE":"US","FILE":"3858743","OBJECT_ID":"2022-119G","SEMIMAJOR_AXIS":"6920.389","DECAY_DATE":null,"TLE_LINE2":"2 53892  53.2175 190.5209 0001680 112.5814 247.5355 15.08019537 26687","ECCENTRICITY":"0.00016800","MEAN_ANOMALY":"247.5355","BSTAR":"0.00043667000000","TLE_LINE1":"1 53892U 22119G   23071.70284409  .00006516  00000-0  43667-3 0  9996","OBJECT_TYPE":"PAYLOAD","CENTER_NAME":"EARTH","PERIOD":"95.489","MEAN_MOTION":"15.08019537","REV_AT_EPOCH":"2668","ELEMENT_SET_NO":"999","EPHEMERIS_TYPE":"0","MEAN_MOTION_DOT":"0.00006516","MEAN_MOTION_DDOT":"0.0000000000000","MEAN_ELEMENT_THEORY":"SGP4","RA_OF_ASC_NODE":"190.5209","REF_FRAME":"TEME","EPOCH":"2023-03-12T16:52:05.729376"},{"RA_OF_ASC_NODE":"190.6142","REF_FRAME":"TEME","EPOCH":"2023-03-12T17:14:02.257152","MEAN_MOTION_DDOT":"0.0000000000000","MEAN_ELEMENT_THEORY":"SGP4","ELEMENT_SET_NO":"999","MEAN_MOTION_DOT":"0.00005309","EPHEMERIS_TYPE":"0","PERIOD":"95.437","MEAN_MOTION":"15.08844799","REV_AT_EPOCH":"2668","TLE_LINE1":"1 53893U 22119H   23071.71808168  .00005309  00000-0  35133-3 0  9990","BSTAR":"0.00035133000000","CENTER_NAME":"EARTH","OBJECT_TYPE":"PAYLOAD","MEAN_ANOMALY":"272.4462","ECCENTRICITY":"0.00003030","DECAY_DATE":null,"SEMIMAJOR_AXIS":"6917.866","TLE_LINE2":"2 53893  53.2167 190.6142 0000303  87.6565 272.4462 15.08844799 26684","OBJECT_ID":"2022-119H","FILE":"3858743","COUNTRY_CODE":"US","NORAD_CAT_ID":"53893","LAUNCH_DATE":"2022-09-24","OBJECT_NAME":"STARLINK-5052","INCLINATION":"53.2167","GP_ID":"227965070","RCS_SIZE":"LARGE","SITE":"AFETR","CLASSIFICATION_TYPE":"U","PERIAPSIS":"539.521","ARG_OF_PERICENTER":"87.6565","TIME_SYSTEM":"UTC","APOAPSIS":"539.940"},{"OBJECT_ID":"2022-119J","FILE":"3858743","COUNTRY_CODE":"US","NORAD_CAT_ID":"53894","LAUNCH_DATE":"2022-09-24","OBJECT_NAME":"STARLINK-5043","INCLINATION":"53.2172","GP_ID":"227966321","RCS_SIZE":"LARGE","SITE":"AFETR","CLASSIFICATION_TYPE":"U","PERIAPSIS":"538.828","ARG_OF_PERICENTER":"90.3757","TIME_SYSTEM":"UTC","APOAPSIS":"540.685","REF_FRAME":"TEME","EPOCH":"2023-03-12T17:24:39.035520","RA_OF_ASC_NODE":"190.6627","MEAN_MOTION_DDOT":"0.0000000000000","MEAN_ELEMENT_THEORY":"SGP4","ELEMENT_SET_NO":"999","MEAN_MOTION_DOT":"0.00002371","EPHEMERIS_TYPE":"0","PERIOD":"95.438","MEAN_MOTION":"15.08836464","REV_AT_EPOCH":"2668","TLE_LINE1":"1 53894U 22119J   23071.72545180  .00002371  00000-0  16703-3 0  9992","BSTAR":"0.00016703000000","CENTER_NAME":"EARTH","OBJECT_TYPE":"PAYLOAD","MEAN_ANOMALY":"269.7389","ECCENTRICITY":"0.00013420","DECAY_DATE":null,"SEMIMAJOR_AXIS":"6917.891","TLE_LINE2":"2 53894  53.2172 190.6627 0001342  90.3757 269.7389 15.08836464 26684"},{"TIME_SYSTEM":"UTC","APOAPSIS":"541.049","ARG_OF_PERICENTER":"101.1804","SITE":"AFETR","CLASSIFICATION_TYPE":"U","RCS_SIZE":"LARGE","PERIAPSIS":"538.487","INCLINATION":"53.2169","OBJECT_NAME":"STARLINK-5032","LAUNCH_DATE":"2022-09-24","GP_ID":"227966072","NORAD_CAT_ID":"53895","COUNTRY_CODE":"US","FILE":"3858743","OBJECT_ID":"2022-119K","SEMIMAJOR_AXIS":"6917.903","DECAY_DATE":null,"TLE_LINE2":"2 53895  53.2169 190.5926 0001852 101.1804 258.9396 15.08832575 26689","ECCENTRICITY":"0.00018520","MEAN_ANOMALY":"258.9396","BSTAR":"0.00006702900000","TLE_LINE1":"1 53895U 22119K   23071.71439808  .00000779  00000-0  67029-4 0  9999","OBJECT_TYPE":"PAYLOAD","CENTER_NAME":"EARTH","PERIOD":"95.438","MEAN_MOTION":"15.08832575","REV_AT_EPOCH":"2668","ELEMENT_SET_NO":"999","EPHEMERIS_TYPE":"0","MEAN_MOTION_DOT":"0.00000779","MEAN_ELEMENT_THEORY":"SGP4","MEAN_MOTION_DDOT":"0.0000000000000","REF_FRAME":"TEME","EPOCH":"2023-03-12T17:08:43.994112","RA_OF_ASC_NODE":"190.5926"}];
